{
    "links": {
        "self": "http://www.neowsapp.com/rest/v1/neo/3869353?api_key=iIulBulltgU6a56xZRHN4H3l9WmuAYTsLGpBGhQ2"
    },
    "id": "3869353",
    "neo_reference_id": "3869353",
    "name": "(2019 SD7)",
    "designation": "2019 SD7",
    "nasa_jpl_url": "http://ssd.jpl.nasa.gov/sbdb.cgi?sstr=3869353",
    "absolute_magnitude_h": 23.7,
    "estimated_diameter": {
        "kilometers": {
            "estimated_diameter_min": 0.0483676488,
            "estimated_diameter_max": 0.1081533507
        },
        "meters": {
            "estimated_diameter_min": 48.3676488219,
            "estimated_diameter_max": 108.1533506775
        },
        "miles": {
            "estimated_diameter_min": 0.0300542543,
            "estimated_diameter_max": 0.0672033557
        },
        "feet": {
            "estimated_diameter_min": 158.6865169607,
            "estimated_diameter_max": 354.8338390368
        }
    },
    "is_potentially_hazardous_asteroid": false,
    "close_approach_data": [
        {
            "close_approach_date": "2005-09-17",
            "close_approach_date_full": "2005-Sep-17 15:10",
            "epoch_date_close_approach": 1126969800000,
            "relative_velocity": {
                "kilometers_per_second": "12.1918278793",
                "kilometers_per_hour": "43890.5803656128",
                "miles_per_hour": "27271.8997832887"
            },
            "miss_distance": {
                "astronomical": "0.2596500544",
                "lunar": "101.0038711616",
                "kilometers": "38843095.083624128",
                "miles": "24135980.0846958464"
            },
            "orbiting_body": "Earth"
        },
        {
            "close_approach_date": "2012-09-23",
            "close_approach_date_full": "2012-Sep-23 13:13",
            "epoch_date_close_approach": 1348405980000,
            "relative_velocity": {
                "kilometers_per_second": "9.2778725509",
                "kilometers_per_hour": "33400.3411833473",
                "miles_per_hour": "20753.6731091749"
            },
            "miss_distance": {
                "astronomical": "0.1412224007",
                "lunar": "54.9355138723",
                "kilometers": "21126570.341006509",
                "miles": "13127442.0823234642"
            },
            "orbiting_body": "Earth"
        },
        {
            "close_approach_date": "2019-09-28",
            "close_approach_date_full": "2019-Sep-28 18:16",
            "epoch_date_close_approach": 1569694560000,
            "relative_velocity": {
                "kilometers_per_second": "8.0117775821",
                "kilometers_per_hour": "28842.3992955626",
                "miles_per_hour": "17921.5452734011"
            },
            "miss_distance": {
                "astronomical": "0.1595054852",
                "lunar": "62.0476337428",
                "kilometers": "23861680.839236524",
                "miles": "14826960.9381870712"
            },
            "orbiting_body": "Earth"
        },
        {
            "close_approach_date": "2026-10-01",
            "close_approach_date_full": "2026-Oct-01 04:23",
            "epoch_date_close_approach": 1790828580000,
            "relative_velocity": {
                "kilometers_per_second": "8.5172894269",
                "kilometers_per_hour": "30662.2419370023",
                "miles_per_hour": "19052.3247191335"
            },
            "miss_distance": {
                "astronomical": "0.2906029012",
                "lunar": "113.0445285668",
                "kilometers": "43473575.035340444",
                "miles": "27013226.9069843672"
            },
            "orbiting_body": "Earth"
        }
    ],
    "orbital_data": {
        "orbit_id": "2",
        "orbit_determination_date": "2020-09-11 07:44:23",
        "first_observation_date": "2019-08-28",
        "last_observation_date": "2019-09-30",
        "data_arc_in_days": 33,
        "observations_used": 13,
        "orbit_uncertainty": "7",
        "minimum_orbit_intersection": ".129424",
        "jupiter_tisserand_invariant": "3.997",
        "epoch_osculation": "2459000.5",
        "eccentricity": ".376564083341734",
        "semi_major_axis": "1.763525286525479",
        "inclination": "14.09982062874823",
        "ascending_node_longitude": "172.1847297085549",
        "orbital_period": "855.403383437486",
        "perihelion_distance": "1.099445003555043",
        "perihelion_argument": "212.9550831252087",
        "aphelion_distance": "2.427605569495915",
        "perihelion_time": "2458780.356654766024",
        "mean_anomaly": "92.6482240060289",
        "mean_motion": ".42085407536421",
        "equinox": "J2000",
        "orbit_class": {
            "orbit_class_type": "AMO",
            "orbit_class_description": "Near-Earth asteroid orbits similar to that of 1221 Amor",
            "orbit_class_range": "1.017 AU < q (perihelion) < 1.3 AU"
        }
    },
    "is_sentry_object": false
}